{
  "norad_id": 67934,
  "name": "STARLINK-36861",
  "history": [
    {
      "epoch": "2026-03-28T22:00:01.999584Z",
      "apogee_km": 427.61897424199105,
      "perigee_km": 426.38601906798795,
      "latitude_deg": -41.96563676646447,
      "longitude_deg": -179.74057922377193,
      "height_km": 439.23123993141513,
      "semi_major_axis_km": 6805.13949665499,
      "eccentricity": 9.059e-05,
      "inclination_deg": 42.9997,
      "raan_deg": 83.0507,
      "arg_perigee_deg": 252.6449,
      "mean_anomaly_deg": 5.1432,
      "mean_motion_rev_day": 15.46490348
    },
    {
      "epoch": "2026-03-29T04:00:01.999584Z",
      "apogee_km": 430.6056035120364,
      "perigee_km": 429.5108457199176,
      "latitude_deg": -20.60665595275839,
      "longitude_deg": 38.65698729841903,
      "height_km": 434.423810271759,
      "semi_major_axis_km": 6808.195224615976,
      "eccentricity": 8.04e-05,
      "inclination_deg": 42.9992,
      "raan_deg": 81.602,
      "arg_perigee_deg": 272.4156,
      "mean_anomaly_deg": 298.4082,
      "mean_motion_rev_day": 15.45449296
    },
    {
      "epoch": "2026-03-30T04:00:01.999584Z",
      "apogee_km": 443.39360136485084,
      "perigee_km": 441.37881880859095,
      "latitude_deg": 9.185824171843299,
      "longitude_deg": -161.82266048141247,
      "height_km": 441.750507069108,
      "semi_major_axis_km": 6820.523210086721,
      "eccentricity": 0.0001477,
      "inclination_deg": 42.9992,
      "raan_deg": 75.8174,
      "arg_perigee_deg": 265.1849,
      "mean_anomaly_deg": 108.3391,
      "mean_motion_rev_day": 15.41261128
    },
    {
      "epoch": "2026-03-30T06:00:02.000160Z",
      "apogee_km": 444.50309271255446,
      "perigee_km": 442.37953538339116,
      "latitude_deg": 37.796656516376814,
      "longitude_deg": -78.11910053601794,
      "height_km": 446.46803462379216,
      "semi_major_axis_km": 6821.5783140479725,
      "eccentricity": 0.00015565,
      "inclination_deg": 42.9991,
      "raan_deg": 75.338,
      "arg_perigee_deg": 281.5161,
      "mean_anomaly_deg": 194.8857,
      "mean_motion_rev_day": 15.40903558
    },
    {
      "epoch": "2026-03-30T14:00:03.000384Z",
      "apogee_km": 448.3712594829194,
      "perigee_km": 446.5312174055998,
      "latitude_deg": 8.894095341832132,
      "longitude_deg": -154.176059341078,
      "height_km": 446.9156824033586,
      "semi_major_axis_km": 6825.588238444259,
      "eccentricity": 0.00013479,
      "inclination_deg": 43.0007,
      "raan_deg": 73.4159,
      "arg_perigee_deg": 283.2237,
      "mean_anomaly_deg": 243.6819,
      "mean_motion_rev_day": 15.39545873
    },
    {
      "epoch": "2026-03-30T22:00:00.999936Z",
      "apogee_km": 452.40670800365297,
      "perigee_km": 450.9261432170488,
      "latitude_deg": -23.52644077073037,
      "longitude_deg": 120.85748181770973,
      "height_km": 456.784419220357,
      "semi_major_axis_km": 6829.80342561035,
      "eccentricity": 0.00010839,
      "inclination_deg": 43.0004,
      "raan_deg": 71.5,
      "arg_perigee_deg": 262.736,
      "mean_anomaly_deg": 312.8226,
      "mean_motion_rev_day": 15.38120838
    }
  ]
}